[{"OBJECT_NAME":"BRO-13","OBJECT_ID":"2024-043K","EPOCH":"2026-03-09T22:19:47.829216","MEAN_MOTION":14.96296765,"ECCENTRICITY":0.00083947,"INCLINATION":97.8333,"RA_OF_ASC_NODE":199.7446,"ARG_OF_PERICENTER":338.0901,"MEAN_ANOMALY":21.996,"EPHEMERIS_TYPE":0,"CLASSIFICATION_TYPE":"U","NORAD_CAT_ID":59107,"ELEMENT_SET_NO":999,"REV_AT_EPOCH":10977,"BSTAR":0.00013050562,"MEAN_MOTION_DOT":1.416e-5,"MEAN_MOTION_DDOT":0},{"OBJECT_NAME":"STARLINK-33905","OBJECT_ID":"2025-094T","EPOCH":"2026-03-09T20:49:25.333248","MEAN_MOTION":14.9834662,"ECCENTRICITY":0.00034,"INCLINATION":70.0019,"RA_OF_ASC_NODE":233.8551,"ARG_OF_PERICENTER":269.1788,"MEAN_ANOMALY":90.8982,"EPHEMERIS_TYPE":0,"CLASSIFICATION_TYPE":"U","NORAD_CAT_ID":63881,"ELEMENT_SET_NO":999,"REV_AT_EPOCH":4723,"BSTAR":0.00093421149,"MEAN_MOTION_DOT":0.00011077,"MEAN_MOTION_DDOT":0}]
